{"type": "FeatureCollection", "features": [{"type": "Feature", "properties": {"name": "Greater Bengaluru (BBMP) - illustrative boundary", "note": "Simplified cartographic approximation, not an official survey boundary."}, "geometry": {"type": "Polygon", "coordinates": [[[77.5946, 13.145], [77.645, 13.128], [77.7, 13.095], [77.748, 13.045], [77.78, 12.995], [77.76, 12.955], [77.74, 12.918], [77.7, 12.878], [77.665, 12.845], [77.61, 12.828], [77.56, 12.832], [77.52, 12.85], [77.48, 12.888], [77.455, 12.935], [77.462, 12.985], [77.47, 13.03], [77.495, 13.075], [77.54, 13.115], [77.5946, 13.145]]]}}]}