{"type": "FeatureCollection", "features": [{"type": "Feature", "geometry": {"type": "Point", "coordinates": [77.608773912213, 12.97655598402037]}, "properties": {"supply_id": 0, "name": "MG Road", "parking_slots": 10, "scs": 0, "fcs": 10}}, {"type": "Feature", "geometry": {"type": "Point", "coordinates": [77.60906356127772, 12.971780245134951]}, "properties": {"supply_id": 1, "name": "Brigade Road", "parking_slots": 26, "scs": 0, "fcs": 26}}, {"type": "Feature", "geometry": {"type": "Point", "coordinates": [77.59269466949647, 12.973843228276916]}, "properties": {"supply_id": 2, "name": "Cubbon Park", "parking_slots": 15, "scs": 0, "fcs": 15}}, {"type": "Feature", "geometry": {"type": "Point", "coordinates": [77.6070580587469, 12.96337583337579]}, "properties": {"supply_id": 3, "name": "Richmond Town", "parking_slots": 13, "scs": 0, "fcs": 13}}, {"type": "Feature", "geometry": {"type": "Point", "coordinates": [77.6047537082505, 12.987035658071202]}, "properties": {"supply_id": 4, "name": "Shivaji Nagar", "parking_slots": 46, "scs": 0, "fcs": 46}}, {"type": "Feature", "geometry": {"type": "Point", "coordinates": [77.62239747157412, 12.982724130561312]}, "properties": {"supply_id": 5, "name": "Ulsoor", "parking_slots": 45, "scs": 0, "fcs": 45}}, {"type": "Feature", "geometry": {"type": "Point", "coordinates": [77.64229083472537, 12.971768296628685]}, "properties": {"supply_id": 6, "name": "Indiranagar", "parking_slots": 24, "scs": 0, "fcs": 24}}, {"type": "Feature", "geometry": {"type": "Point", "coordinates": [77.63978913416881, 12.964402741033428]}, "properties": {"supply_id": 7, "name": "Domlur", "parking_slots": 47, "scs": 0, "fcs": 47}}, {"type": "Feature", "geometry": {"type": "Point", "coordinates": [77.66423036048558, 12.98550827873593]}, "properties": {"supply_id": 8, "name": "CV Raman Nagar", "parking_slots": 21, "scs": 1, "fcs": 20}}, {"type": "Feature", "geometry": {"type": "Point", "coordinates": [77.61455932810513, 12.936604082568559]}, "properties": {"supply_id": 9, "name": "Koramangala", "parking_slots": 28, "scs": 0, "fcs": 28}}, {"type": "Feature", "geometry": {"type": "Point", "coordinates": [77.61120317881542, 12.918442074631383]}, "properties": {"supply_id": 10, "name": "BTM Layout", "parking_slots": 49, "scs": 0, "fcs": 49}}, {"type": "Feature", "geometry": {"type": "Point", "coordinates": [77.63894230132922, 12.910445656734861]}, "properties": {"supply_id": 11, "name": "HSR Layout", "parking_slots": 37, "scs": 3, "fcs": 34}}, {"type": "Feature", "geometry": {"type": "Point", "coordinates": [77.67973181956297, 12.925070935619935]}, "properties": {"supply_id": 12, "name": "Bellandur", "parking_slots": 33, "scs": 0, "fcs": 33}}, {"type": "Feature", "geometry": {"type": "Point", "coordinates": [77.6869217813197, 12.900069933490736]}, "properties": {"supply_id": 13, "name": "Sarjapur Road", "parking_slots": 38, "scs": 0, "fcs": 38}}, {"type": "Feature", "geometry": {"type": "Point", "coordinates": [77.69884822408191, 12.957137104095539]}, "properties": {"supply_id": 14, "name": "Marathahalli", "parking_slots": 21, "scs": 0, "fcs": 21}}, {"type": "Feature", "geometry": {"type": "Point", "coordinates": [77.74971799513254, 12.971222204396918]}, "properties": {"supply_id": 15, "name": "Whitefield", "parking_slots": 34, "scs": 0, "fcs": 34}}, {"type": "Feature", "geometry": {"type": "Point", "coordinates": [77.73660042942181, 12.985662448246849]}, "properties": {"supply_id": 16, "name": "ITPL", "parking_slots": 47, "scs": 2, "fcs": 45}}, {"type": "Feature", "geometry": {"type": "Point", "coordinates": [77.76274663701545, 12.99090050947446]}, "properties": {"supply_id": 17, "name": "Kadugodi", "parking_slots": 54, "scs": 1, "fcs": 53}}, {"type": "Feature", "geometry": {"type": "Point", "coordinates": [77.71669271963935, 12.992739298064034]}, "properties": {"supply_id": 18, "name": "Hoodi", "parking_slots": 46, "scs": 0, "fcs": 46}}, {"type": "Feature", "geometry": {"type": "Point", "coordinates": [77.69449915861907, 13.00362050931635]}, "properties": {"supply_id": 19, "name": "KR Puram", "parking_slots": 18, "scs": 1, "fcs": 17}}, {"type": "Feature", "geometry": {"type": "Point", "coordinates": [77.68530241084099, 12.99001005166857]}, "properties": {"supply_id": 20, "name": "Mahadevapura", "parking_slots": 47, "scs": 0, "fcs": 47}}, {"type": "Feature", "geometry": {"type": "Point", "coordinates": [77.69948166054782, 12.939753174993117]}, "properties": {"supply_id": 21, "name": "Panathur", "parking_slots": 53, "scs": 0, "fcs": 53}}, {"type": "Feature", "geometry": {"type": "Point", "coordinates": [77.7157537883679, 12.968751307106592]}, "properties": {"supply_id": 22, "name": "Kundalahalli", "parking_slots": 50, "scs": 3, "fcs": 47}}, {"type": "Feature", "geometry": {"type": "Point", "coordinates": [77.7413524438308, 12.936944746266503]}, "properties": {"supply_id": 23, "name": "Varthur", "parking_slots": 28, "scs": 0, "fcs": 28}}, {"type": "Feature", "geometry": {"type": "Point", "coordinates": [77.65876998337124, 12.845700239267545]}, "properties": {"supply_id": 24, "name": "Electronic City Phase 1", "parking_slots": 50, "scs": 0, "fcs": 50}}, {"type": "Feature", "geometry": {"type": "Point", "coordinates": [77.68327899248703, 12.841037297581053]}, "properties": {"supply_id": 25, "name": "Electronic City Phase 2", "parking_slots": 17, "scs": 0, "fcs": 17}}, {"type": "Feature", "geometry": {"type": "Point", "coordinates": [77.62325234133931, 12.903054451690107]}, "properties": {"supply_id": 26, "name": "Bommanahalli", "parking_slots": 44, "scs": 0, "fcs": 44}}, {"type": "Feature", "geometry": {"type": "Point", "coordinates": [77.59843210223345, 12.891138126255939]}, "properties": {"supply_id": 27, "name": "Bannerghatta Road", "parking_slots": 8, "scs": 0, "fcs": 8}}, {"type": "Feature", "geometry": {"type": "Point", "coordinates": [77.58342994855542, 12.910128663715586]}, "properties": {"supply_id": 28, "name": "JP Nagar", "parking_slots": 10, "scs": 0, "fcs": 10}}, {"type": "Feature", "geometry": {"type": "Point", "coordinates": [77.58461861161636, 12.933517303697771]}, "properties": {"supply_id": 29, "name": "Jayanagar", "parking_slots": 23, "scs": 1, "fcs": 22}}, {"type": "Feature", "geometry": {"type": "Point", "coordinates": [77.55356063014258, 12.923888421232336]}, "properties": {"supply_id": 30, "name": "Banashankari", "parking_slots": 44, "scs": 0, "fcs": 44}}, {"type": "Feature", "geometry": {"type": "Point", "coordinates": [77.57412305857551, 12.941470305679717]}, "properties": {"supply_id": 31, "name": "Basavanagudi", "parking_slots": 39, "scs": 0, "fcs": 39}}, {"type": "Feature", "geometry": {"type": "Point", "coordinates": [77.5660386446493, 12.956009264478324]}, "properties": {"supply_id": 32, "name": "Chamrajpet", "parking_slots": 37, "scs": 0, "fcs": 37}}, {"type": "Feature", "geometry": {"type": "Point", "coordinates": [77.53191454420492, 12.970892533862868]}, "properties": {"supply_id": 33, "name": "Vijayanagar", "parking_slots": 28, "scs": 0, "fcs": 28}}, {"type": "Feature", "geometry": {"type": "Point", "coordinates": [77.55590595566392, 12.988157469222482]}, "properties": {"supply_id": 34, "name": "Rajajinagar", "parking_slots": 17, "scs": 1, "fcs": 16}}, {"type": "Feature", "geometry": {"type": "Point", "coordinates": [77.57037818662849, 13.005727990087228]}, "properties": {"supply_id": 35, "name": "Malleshwaram", "parking_slots": 28, "scs": 0, "fcs": 28}}, {"type": "Feature", "geometry": {"type": "Point", "coordinates": [77.55382692829947, 13.025817451799929]}, "properties": {"supply_id": 36, "name": "Yeshwanthpur", "parking_slots": 21, "scs": 0, "fcs": 21}}, {"type": "Feature", "geometry": {"type": "Point", "coordinates": [77.52093600140687, 13.032559438235378]}, "properties": {"supply_id": 37, "name": "Peenya", "parking_slots": 33, "scs": 0, "fcs": 33}}, {"type": "Feature", "geometry": {"type": "Point", "coordinates": [77.50929511350445, 12.959925917785423]}, "properties": {"supply_id": 38, "name": "Nagarbhavi", "parking_slots": 30, "scs": 2, "fcs": 28}}, {"type": "Feature", "geometry": {"type": "Point", "coordinates": [77.52307268930417, 12.925649820590126]}, "properties": {"supply_id": 39, "name": "Rajarajeshwari Nagar", "parking_slots": 28, "scs": 0, "fcs": 28}}, {"type": "Feature", "geometry": {"type": "Point", "coordinates": [77.48236476364754, 12.908551152180056]}, "properties": {"supply_id": 40, "name": "Kengeri", "parking_slots": 42, "scs": 0, "fcs": 42}}, {"type": "Feature", "geometry": {"type": "Point", "coordinates": [77.56097710730234, 13.066142819593844]}, "properties": {"supply_id": 41, "name": "Vidyaranyapura", "parking_slots": 31, "scs": 2, "fcs": 29}}, {"type": "Feature", "geometry": {"type": "Point", "coordinates": [77.59813142108405, 13.09961262443097]}, "properties": {"supply_id": 42, "name": "Yelahanka", "parking_slots": 36, "scs": 2, "fcs": 34}}, {"type": "Feature", "geometry": {"type": "Point", "coordinates": [77.59415532182621, 13.114938654636143]}, "properties": {"supply_id": 43, "name": "Yelahanka New Town", "parking_slots": 40, "scs": 0, "fcs": 40}}, {"type": "Feature", "geometry": {"type": "Point", "coordinates": [77.59665955552528, 13.035705914556855]}, "properties": {"supply_id": 44, "name": "Hebbal", "parking_slots": 17, "scs": 0, "fcs": 17}}, {"type": "Feature", "geometry": {"type": "Point", "coordinates": [77.5926338170138, 13.023266099940123]}, "properties": {"supply_id": 45, "name": "RT Nagar", "parking_slots": 43, "scs": 0, "fcs": 43}}, {"type": "Feature", "geometry": {"type": "Point", "coordinates": [77.57489600635556, 13.018913478630568]}, "properties": {"supply_id": 46, "name": "Sanjaynagar", "parking_slots": 33, "scs": 0, "fcs": 33}}, {"type": "Feature", "geometry": {"type": "Point", "coordinates": [77.63598405526434, 13.015378833171875]}, "properties": {"supply_id": 47, "name": "Kammanahalli", "parking_slots": 11, "scs": 0, "fcs": 11}}, {"type": "Feature", "geometry": {"type": "Point", "coordinates": [77.63702444213205, 13.021963483167523]}, "properties": {"supply_id": 48, "name": "HBR Layout", "parking_slots": 19, "scs": 0, "fcs": 19}}, {"type": "Feature", "geometry": {"type": "Point", "coordinates": [77.64539526377912, 13.022176286240764]}, "properties": {"supply_id": 49, "name": "Kalyan Nagar", "parking_slots": 51, "scs": 4, "fcs": 47}}, {"type": "Feature", "geometry": {"type": "Point", "coordinates": [77.61399333820884, 12.99858952892558]}, "properties": {"supply_id": 50, "name": "Frazer Town", "parking_slots": 43, "scs": 0, "fcs": 43}}, {"type": "Feature", "geometry": {"type": "Point", "coordinates": [77.61590714230327, 12.997567659311922]}, "properties": {"supply_id": 51, "name": "Cox Town", "parking_slots": 46, "scs": 3, "fcs": 43}}, {"type": "Feature", "geometry": {"type": "Point", "coordinates": [77.6533880373989, 13.0154562759719]}, "properties": {"supply_id": 52, "name": "Banaswadi", "parking_slots": 23, "scs": 0, "fcs": 23}}, {"type": "Feature", "geometry": {"type": "Point", "coordinates": [77.65516418958872, 12.963032455728115]}, "properties": {"supply_id": 53, "name": "Old Airport Road", "parking_slots": 8, "scs": 0, "fcs": 8}}, {"type": "Feature", "geometry": {"type": "Point", "coordinates": [77.64656862047352, 12.949109653745525]}, "properties": {"supply_id": 54, "name": "HAL Airport Road", "parking_slots": 17, "scs": 0, "fcs": 17}}, {"type": "Feature", "geometry": {"type": "Point", "coordinates": [77.5943223925877, 12.952922575109715]}, "properties": {"supply_id": 55, "name": "Wilson Garden", "parking_slots": 20, "scs": 0, "fcs": 20}}, {"type": "Feature", "geometry": {"type": "Point", "coordinates": [77.59796576304113, 12.957295504715646]}, "properties": {"supply_id": 56, "name": "Shanti Nagar", "parking_slots": 13, "scs": 0, "fcs": 13}}, {"type": "Feature", "geometry": {"type": "Point", "coordinates": [77.75942099015278, 12.832]}, "properties": {"supply_id": 57, "name": "Attibele", "parking_slots": 27, "scs": 0, "fcs": 27}}, {"type": "Feature", "geometry": {"type": "Point", "coordinates": [77.69852071688413, 12.832]}, "properties": {"supply_id": 58, "name": "Anekal", "parking_slots": 36, "scs": 0, "fcs": 36}}, {"type": "Feature", "geometry": {"type": "Point", "coordinates": [77.62870405764039, 13.042732545153136]}, "properties": {"supply_id": 59, "name": "Hennur", "parking_slots": 15, "scs": 0, "fcs": 15}}, {"type": "Feature", "geometry": {"type": "Point", "coordinates": [77.5479776770281, 13.048320565592256]}, "properties": {"supply_id": 60, "name": "Jalahalli", "parking_slots": 30, "scs": 0, "fcs": 30}}, {"type": "Feature", "geometry": {"type": "Point", "coordinates": [77.60381092275497, 12.97079640898864]}, "properties": {"supply_id": 61, "name": "MG Road #61", "parking_slots": 25, "scs": 0, "fcs": 25}}, {"type": "Feature", "geometry": {"type": "Point", "coordinates": [77.6051389914408, 12.974393148713181]}, "properties": {"supply_id": 62, "name": "Brigade Road #62", "parking_slots": 47, "scs": 0, "fcs": 47}}, {"type": "Feature", "geometry": {"type": "Point", "coordinates": [77.59144630790833, 12.977806229249207]}, "properties": {"supply_id": 63, "name": "Cubbon Park #63", "parking_slots": 14, "scs": 0, "fcs": 14}}, {"type": "Feature", "geometry": {"type": "Point", "coordinates": [77.60242316416046, 12.96174160494059]}, "properties": {"supply_id": 64, "name": "Richmond Town #64", "parking_slots": 9, "scs": 0, "fcs": 9}}, {"type": "Feature", "geometry": {"type": "Point", "coordinates": [77.60221537856788, 12.994450838743354]}, "properties": {"supply_id": 65, "name": "Shivaji Nagar #65", "parking_slots": 15, "scs": 0, "fcs": 15}}, {"type": "Feature", "geometry": {"type": "Point", "coordinates": [77.61348747839023, 12.985928741877567]}, "properties": {"supply_id": 66, "name": "Ulsoor #66", "parking_slots": 49, "scs": 0, "fcs": 49}}, {"type": "Feature", "geometry": {"type": "Point", "coordinates": [77.63372010598209, 12.970353109301213]}, "properties": {"supply_id": 67, "name": "Indiranagar #67", "parking_slots": 31, "scs": 0, "fcs": 31}}, {"type": "Feature", "geometry": {"type": "Point", "coordinates": [77.64317116340158, 12.955683042820977]}, "properties": {"supply_id": 68, "name": "Domlur #68", "parking_slots": 44, "scs": 0, "fcs": 44}}, {"type": "Feature", "geometry": {"type": "Point", "coordinates": [77.66657494651616, 12.985045573620623]}, "properties": {"supply_id": 69, "name": "CV Raman Nagar #69", "parking_slots": 9, "scs": 0, "fcs": 9}}, {"type": "Feature", "geometry": {"type": "Point", "coordinates": [77.62080803445275, 12.922193291563909]}, "properties": {"supply_id": 70, "name": "Koramangala #70", "parking_slots": 54, "scs": 5, "fcs": 49}}, {"type": "Feature", "geometry": {"type": "Point", "coordinates": [77.61083005925562, 12.912026957890882]}, "properties": {"supply_id": 71, "name": "BTM Layout #71", "parking_slots": 12, "scs": 0, "fcs": 12}}, {"type": "Feature", "geometry": {"type": "Point", "coordinates": [77.64050238580505, 12.922767016051255]}, "properties": {"supply_id": 72, "name": "HSR Layout #72", "parking_slots": 43, "scs": 0, "fcs": 43}}, {"type": "Feature", "geometry": {"type": "Point", "coordinates": [77.69039303224797, 12.931203490662378]}, "properties": {"supply_id": 73, "name": "Bellandur #73", "parking_slots": 25, "scs": 0, "fcs": 25}}, {"type": "Feature", "geometry": {"type": "Point", "coordinates": [77.6831028665814, 12.899365437586422]}, "properties": {"supply_id": 74, "name": "Sarjapur Road #74", "parking_slots": 53, "scs": 0, "fcs": 53}}, {"type": "Feature", "geometry": {"type": "Point", "coordinates": [77.70187700421062, 12.95699681902835]}, "properties": {"supply_id": 75, "name": "Marathahalli #75", "parking_slots": 45, "scs": 2, "fcs": 43}}, {"type": "Feature", "geometry": {"type": "Point", "coordinates": [77.74523053833755, 12.963026538377479]}, "properties": {"supply_id": 76, "name": "Whitefield #76", "parking_slots": 43, "scs": 1, "fcs": 42}}, {"type": "Feature", "geometry": {"type": "Point", "coordinates": [77.74001718732698, 12.991721230543137]}, "properties": {"supply_id": 77, "name": "ITPL #77", "parking_slots": 50, "scs": 1, "fcs": 49}}, {"type": "Feature", "geometry": {"type": "Point", "coordinates": [77.76763297315465, 13.000922364189542]}, "properties": {"supply_id": 78, "name": "Kadugodi #78", "parking_slots": 21, "scs": 0, "fcs": 21}}, {"type": "Feature", "geometry": {"type": "Point", "coordinates": [77.71366688132188, 12.996995479831781]}, "properties": {"supply_id": 79, "name": "Hoodi #79", "parking_slots": 28, "scs": 0, "fcs": 28}}, {"type": "Feature", "geometry": {"type": "Point", "coordinates": [77.69383235708663, 13.011617090631118]}, "properties": {"supply_id": 80, "name": "KR Puram #80", "parking_slots": 15, "scs": 0, "fcs": 15}}, {"type": "Feature", "geometry": {"type": "Point", "coordinates": [77.68592134380272, 12.98165522058048]}, "properties": {"supply_id": 81, "name": "Mahadevapura #81", "parking_slots": 37, "scs": 1, "fcs": 36}}, {"type": "Feature", "geometry": {"type": "Point", "coordinates": [77.70961815962836, 12.94797143350256]}, "properties": {"supply_id": 82, "name": "Panathur #82", "parking_slots": 9, "scs": 0, "fcs": 9}}, {"type": "Feature", "geometry": {"type": "Point", "coordinates": [77.7120289710058, 12.978846955706043]}, "properties": {"supply_id": 83, "name": "Kundalahalli #83", "parking_slots": 40, "scs": 0, "fcs": 40}}, {"type": "Feature", "geometry": {"type": "Point", "coordinates": [77.74521161576757, 12.946155371159275]}, "properties": {"supply_id": 84, "name": "Varthur #84", "parking_slots": 31, "scs": 0, "fcs": 31}}, {"type": "Feature", "geometry": {"type": "Point", "coordinates": [77.66422498460734, 12.843233383468192]}, "properties": {"supply_id": 85, "name": "Electronic City Phase 1 #85", "parking_slots": 32, "scs": 0, "fcs": 32}}, {"type": "Feature", "geometry": {"type": "Point", "coordinates": [77.68695542732422, 12.838644194779448]}, "properties": {"supply_id": 86, "name": "Electronic City Phase 2 #86", "parking_slots": 42, "scs": 0, "fcs": 42}}, {"type": "Feature", "geometry": {"type": "Point", "coordinates": [77.61761694158706, 12.902782504170974]}, "properties": {"supply_id": 87, "name": "Bommanahalli #87", "parking_slots": 39, "scs": 0, "fcs": 39}}, {"type": "Feature", "geometry": {"type": "Point", "coordinates": [77.60430981185921, 12.894096855913217]}, "properties": {"supply_id": 88, "name": "Bannerghatta Road #88", "parking_slots": 8, "scs": 0, "fcs": 8}}, {"type": "Feature", "geometry": {"type": "Point", "coordinates": [77.57633179645859, 12.919618505426556]}, "properties": {"supply_id": 89, "name": "JP Nagar #89", "parking_slots": 9, "scs": 0, "fcs": 9}}, {"type": "Feature", "geometry": {"type": "Point", "coordinates": [77.57916204752205, 12.940573696990317]}, "properties": {"supply_id": 90, "name": "Jayanagar #90", "parking_slots": 42, "scs": 1, "fcs": 41}}, {"type": "Feature", "geometry": {"type": "Point", "coordinates": [77.54714316813377, 12.931381197615297]}, "properties": {"supply_id": 91, "name": "Banashankari #91", "parking_slots": 21, "scs": 0, "fcs": 21}}, {"type": "Feature", "geometry": {"type": "Point", "coordinates": [77.56378997417285, 12.952745317464393]}, "properties": {"supply_id": 92, "name": "Basavanagudi #92", "parking_slots": 15, "scs": 0, "fcs": 15}}, {"type": "Feature", "geometry": {"type": "Point", "coordinates": [77.57278911514922, 12.952207351951262]}, "properties": {"supply_id": 93, "name": "Chamrajpet #93", "parking_slots": 21, "scs": 0, "fcs": 21}}, {"type": "Feature", "geometry": {"type": "Point", "coordinates": [77.53370737514703, 12.972357229467168]}, "properties": {"supply_id": 94, "name": "Vijayanagar #94", "parking_slots": 14, "scs": 0, "fcs": 14}}, {"type": "Feature", "geometry": {"type": "Point", "coordinates": [77.55333010225687, 12.985786201552825]}, "properties": {"supply_id": 95, "name": "Rajajinagar #95", "parking_slots": 30, "scs": 0, "fcs": 30}}, {"type": "Feature", "geometry": {"type": "Point", "coordinates": [77.57730900127234, 12.995638026674685]}, "properties": {"supply_id": 96, "name": "Malleshwaram #96", "parking_slots": 16, "scs": 1, "fcs": 15}}, {"type": "Feature", "geometry": {"type": "Point", "coordinates": [77.54186915587204, 13.028390048838693]}, "properties": {"supply_id": 97, "name": "Yeshwanthpur #97", "parking_slots": 36, "scs": 0, "fcs": 36}}, {"type": "Feature", "geometry": {"type": "Point", "coordinates": [77.5246132650317, 13.04119242147733]}, "properties": {"supply_id": 98, "name": "Peenya #98", "parking_slots": 54, "scs": 0, "fcs": 54}}, {"type": "Feature", "geometry": {"type": "Point", "coordinates": [77.50599223724876, 12.949833626799576]}, "properties": {"supply_id": 99, "name": "Nagarbhavi #99", "parking_slots": 34, "scs": 0, "fcs": 34}}]}